XRISM                   
1 57800U 23137A   24090.54205235  .00006110  00000+0  47148-3 0  9991
2 57800  31.0022 152.8266 0010182 149.8952 210.2270 15.00122947 30783
